0 COSMOS 1823 DEB
1 29355U 87020DW  13279.32047578  .00000059  00000-0  54420-3 0  5324
2 29355 073.6263 138.7860 0030252 353.5092 122.0102 12.43831620503001
0 COSMOS 1823 DEB
1 29355U 87020DW  13283.97450414  .00000157  00000-0  12396-2 0  5332
2 29355 073.6257 132.5222 0030164 347.2732 081.3343 12.43832713503582
0 COSMOS 1823 DEB
1 29355U 87020DW  13286.00414898  .00000142  00000-0  11375-2 0  5346
2 29355 073.6254 129.7905 0030140 344.4736 169.5505 12.43833461503830
0 COSMOS 1823 DEB
1 29355U 87020DW  13288.96099836  .00000166  00000-0  13077-2 0  5352
2 29355 073.6252 125.8107 0030140 340.2162 089.7396 12.43835606504202
0 COSMOS 1823 DEB
1 29355U 87020DW  13293.23303481  .00000195  00000-0  15155-2 0  5364
2 29355 073.6256 120.0604 0030230 334.0589 139.1137 12.43837282504732
